STARLINK-36993
1 67994U 26039J   26079.83335648 -.01905634  00000+0 -30276-1 0  9997
2 67994  42.9995 347.2858 0001608 253.1256  77.7742 15.55961700  4660
STARLINK-36968
1 67995U 26039K   26079.83335648 -.00075743  00000+0 -12969-2 0  9996
2 67995  42.9996 348.1634 0001456 261.3058  74.1919 15.50598450  4666
STARLINK-36979
1 67996U 26039L   26079.83335648 -.01900102  00000+0 -28429-1 0  9991
2 67996  42.9996 347.1894 0001610 256.1523 113.4875 15.57543032  4666
STARLINK-36994
1 67997U 26039M   26079.83335648 -.01168423  00000+0 -21185-1 0  9996
2 67997  42.9997 347.5015 0001380 252.2231 350.5123 15.51379102  4663
STARLINK-36988
1 67998U 26039N   26079.83335648 -.02157769  00000+0 -38301-1 0  9997
2 67998  42.9996 347.4481 0001390 243.1061  21.8892 15.52833132  4660
STARLINK-36926
1 67999U 26039P   26079.83335648 -.01580082  00000+0 -28711-1 0  9999
2 67999  42.9995 347.4796 0000566 283.8946 327.9778 15.51711532  4667
STARLINK-36931
1 68000U 26039Q   26079.83335648 -.01912570  00000+0 -30501-1 0  9994
2 68000  42.9992 347.2264 0001591 253.9366 100.5338 15.55874038  4661
STARLINK-36903
1 68001U 26039R   26079.83335648 -.01281868  00000+0 -23366-1 0  9995
2 68001  42.9998 347.4662 0001176 262.1083 355.3237 15.51483594  4666
STARLINK-36898
1 68002U 26039S   26079.83335648 -.01895043  00000+0 -31480-1 0  9998
2 68002  42.9997 347.2571 0001568 251.3180  90.2717 15.54747541  4662
STARLINK-36862
1 68003U 26039T   26079.83335648 -.02162333  00000+0 -38448-1 0  9990
2 68003  42.9995 347.3641 0001388 251.4631  46.7021 15.52793900  4664
STARLINK-36888
1 68004U 26039U   26079.83335648 -.01927208  00000+0 -34405-1 0  9999
2 68004  42.9993 347.4172 0001214 254.9203  22.1046 15.52303545  4661
STARLINK-36910
1 68005U 26039V   26079.83335648 -.01844646  00000+0 -29348-1 0  9994
2 68005  42.9993 347.1790 0001209 277.3793  95.6859 15.55813354  4666
STARLINK-36889
1 68006U 26039W   26079.83335648  .00054186  00000+0  92503-3 0  9999
2 68006  42.9997 347.4793 0001001 237.7744  13.5671 15.50519717  4665
STARLINK-36592
1 68007U 26039X   26079.83335648 -.01906109  00000+0 -31339-1 0  9992
2 68007  42.9994 347.1973 0001375 258.8674 106.6603 15.55047501  4661
STARLINK-36911
1 68008U 26039Y   26079.83335648 -.01800270  00000+0 -31116-1 0  9998
2 68008  42.9992 347.2758 0001342 239.2083  94.7556 15.53494690  4660
STARLINK-36956
1 68009U 26039Z   26079.83335648 -.01986089  00000+0 -35409-1 0  9991
2 68009  42.9992 347.3357 0001447 259.1737  50.2442 15.52432957  4668
