[{"OBJECT_NAME":"STARLINK-36993","OBJECT_ID":"2026-039J","EPOCH":"2026-03-20T20:00:01.999872","MEAN_MOTION":15.559617,"ECCENTRICITY":0.00016087,"INCLINATION":42.9995,"RA_OF_ASC_NODE":347.2858,"ARG_OF_PERICENTER":253.1256,"MEAN_ANOMALY":77.7742,"EPHEMERIS_TYPE":0,"CLASSIFICATION_TYPE":"U","NORAD_CAT_ID":67994,"ELEMENT_SET_NO":999,"REV_AT_EPOCH":466,"BSTAR":-0.030275737,"MEAN_MOTION_DOT":-0.01905634,"MEAN_MOTION_DDOT":0},{"OBJECT_NAME":"STARLINK-36968","OBJECT_ID":"2026-039K","EPOCH":"2026-03-20T20:00:01.999872","MEAN_MOTION":15.5059845,"ECCENTRICITY":0.00014565,"INCLINATION":42.9996,"RA_OF_ASC_NODE":348.1634,"ARG_OF_PERICENTER":261.3058,"MEAN_ANOMALY":74.1919,"EPHEMERIS_TYPE":0,"CLASSIFICATION_TYPE":"U","NORAD_CAT_ID":67995,"ELEMENT_SET_NO":999,"REV_AT_EPOCH":466,"BSTAR":-0.0012968713,"MEAN_MOTION_DOT":-0.00075743,"MEAN_MOTION_DDOT":0},{"OBJECT_NAME":"STARLINK-36979","OBJECT_ID":"2026-039L","EPOCH":"2026-03-20T20:00:01.999872","MEAN_MOTION":15.57543032,"ECCENTRICITY":0.00016104,"INCLINATION":42.9996,"RA_OF_ASC_NODE":347.1894,"ARG_OF_PERICENTER":256.1523,"MEAN_ANOMALY":113.4875,"EPHEMERIS_TYPE":0,"CLASSIFICATION_TYPE":"U","NORAD_CAT_ID":67996,"ELEMENT_SET_NO":999,"REV_AT_EPOCH":466,"BSTAR":-0.0284287,"MEAN_MOTION_DOT":-0.01900102,"MEAN_MOTION_DDOT":0},{"OBJECT_NAME":"STARLINK-36994","OBJECT_ID":"2026-039M","EPOCH":"2026-03-20T20:00:01.999872","MEAN_MOTION":15.51379102,"ECCENTRICITY":0.00013802,"INCLINATION":42.9997,"RA_OF_ASC_NODE":347.5015,"ARG_OF_PERICENTER":252.2231,"MEAN_ANOMALY":350.5123,"EPHEMERIS_TYPE":0,"CLASSIFICATION_TYPE":"U","NORAD_CAT_ID":67997,"ELEMENT_SET_NO":999,"REV_AT_EPOCH":466,"BSTAR":-0.021184888,"MEAN_MOTION_DOT":-0.01168423,"MEAN_MOTION_DDOT":0},{"OBJECT_NAME":"STARLINK-36988","OBJECT_ID":"2026-039N","EPOCH":"2026-03-20T20:00:01.999872","MEAN_MOTION":15.52833132,"ECCENTRICITY":0.00013906,"INCLINATION":42.9996,"RA_OF_ASC_NODE":347.4481,"ARG_OF_PERICENTER":243.1061,"MEAN_ANOMALY":21.8892,"EPHEMERIS_TYPE":0,"CLASSIFICATION_TYPE":"U","NORAD_CAT_ID":67998,"ELEMENT_SET_NO":999,"REV_AT_EPOCH":466,"BSTAR":-0.03830124,"MEAN_MOTION_DOT":-0.02157769,"MEAN_MOTION_DDOT":0},{"OBJECT_NAME":"STARLINK-36926","OBJECT_ID":"2026-039P","EPOCH":"2026-03-20T20:00:01.999872","MEAN_MOTION":15.51711532,"ECCENTRICITY":5.668e-5,"INCLINATION":42.9995,"RA_OF_ASC_NODE":347.4796,"ARG_OF_PERICENTER":283.8946,"MEAN_ANOMALY":327.9778,"EPHEMERIS_TYPE":0,"CLASSIFICATION_TYPE":"U","NORAD_CAT_ID":67999,"ELEMENT_SET_NO":999,"REV_AT_EPOCH":466,"BSTAR":-0.028710931,"MEAN_MOTION_DOT":-0.01580082,"MEAN_MOTION_DDOT":0},{"OBJECT_NAME":"STARLINK-36931","OBJECT_ID":"2026-039Q","EPOCH":"2026-03-20T20:00:01.999872","MEAN_MOTION":15.55874038,"ECCENTRICITY":0.00015912,"INCLINATION":42.9992,"RA_OF_ASC_NODE":347.2264,"ARG_OF_PERICENTER":253.9366,"MEAN_ANOMALY":100.5338,"EPHEMERIS_TYPE":0,"CLASSIFICATION_TYPE":"U","NORAD_CAT_ID":68000,"ELEMENT_SET_NO":999,"REV_AT_EPOCH":466,"BSTAR":-0.030501119,"MEAN_MOTION_DOT":-0.0191257,"MEAN_MOTION_DDOT":0},{"OBJECT_NAME":"STARLINK-36903","OBJECT_ID":"2026-039R","EPOCH":"2026-03-20T20:00:01.999872","MEAN_MOTION":15.51483594,"ECCENTRICITY":0.00011766,"INCLINATION":42.9998,"RA_OF_ASC_NODE":347.4662,"ARG_OF_PERICENTER":262.1083,"MEAN_ANOMALY":355.3237,"EPHEMERIS_TYPE":0,"CLASSIFICATION_TYPE":"U","NORAD_CAT_ID":68001,"ELEMENT_SET_NO":999,"REV_AT_EPOCH":466,"BSTAR":-0.023365788,"MEAN_MOTION_DOT":-0.01281868,"MEAN_MOTION_DDOT":0},{"OBJECT_NAME":"STARLINK-36898","OBJECT_ID":"2026-039S","EPOCH":"2026-03-20T20:00:01.999872","MEAN_MOTION":15.54747541,"ECCENTRICITY":0.00015686,"INCLINATION":42.9997,"RA_OF_ASC_NODE":347.2571,"ARG_OF_PERICENTER":251.318,"MEAN_ANOMALY":90.2717,"EPHEMERIS_TYPE":0,"CLASSIFICATION_TYPE":"U","NORAD_CAT_ID":68002,"ELEMENT_SET_NO":999,"REV_AT_EPOCH":466,"BSTAR":-0.031479646,"MEAN_MOTION_DOT":-0.01895043,"MEAN_MOTION_DDOT":0},{"OBJECT_NAME":"STARLINK-36862","OBJECT_ID":"2026-039T","EPOCH":"2026-03-20T20:00:01.999872","MEAN_MOTION":15.527939,"ECCENTRICITY":0.00013884,"INCLINATION":42.9995,"RA_OF_ASC_NODE":347.3641,"ARG_OF_PERICENTER":251.4631,"MEAN_ANOMALY":46.7021,"EPHEMERIS_TYPE":0,"CLASSIFICATION_TYPE":"U","NORAD_CAT_ID":68003,"ELEMENT_SET_NO":999,"REV_AT_EPOCH":466,"BSTAR":-0.038447963,"MEAN_MOTION_DOT":-0.02162333,"MEAN_MOTION_DDOT":0},{"OBJECT_NAME":"STARLINK-36888","OBJECT_ID":"2026-039U","EPOCH":"2026-03-20T20:00:01.999872","MEAN_MOTION":15.52303545,"ECCENTRICITY":0.00012142,"INCLINATION":42.9993,"RA_OF_ASC_NODE":347.4172,"ARG_OF_PERICENTER":254.9203,"MEAN_ANOMALY":22.1046,"EPHEMERIS_TYPE":0,"CLASSIFICATION_TYPE":"U","NORAD_CAT_ID":68004,"ELEMENT_SET_NO":999,"REV_AT_EPOCH":466,"BSTAR":-0.034404519,"MEAN_MOTION_DOT":-0.01927208,"MEAN_MOTION_DDOT":0},{"OBJECT_NAME":"STARLINK-36910","OBJECT_ID":"2026-039V","EPOCH":"2026-03-20T20:00:01.999872","MEAN_MOTION":15.55813354,"ECCENTRICITY":0.00012096,"INCLINATION":42.9993,"RA_OF_ASC_NODE":347.179,"ARG_OF_PERICENTER":277.3793,"MEAN_ANOMALY":95.6859,"EPHEMERIS_TYPE":0,"CLASSIFICATION_TYPE":"U","NORAD_CAT_ID":68005,"ELEMENT_SET_NO":999,"REV_AT_EPOCH":466,"BSTAR":-0.029348144,"MEAN_MOTION_DOT":-0.01844646,"MEAN_MOTION_DDOT":0},{"OBJECT_NAME":"STARLINK-36889","OBJECT_ID":"2026-039W","EPOCH":"2026-03-20T20:00:01.999872","MEAN_MOTION":15.50519717,"ECCENTRICITY":0.00010011,"INCLINATION":42.9997,"RA_OF_ASC_NODE":347.4793,"ARG_OF_PERICENTER":237.7744,"MEAN_ANOMALY":13.5671,"EPHEMERIS_TYPE":0,"CLASSIFICATION_TYPE":"U","NORAD_CAT_ID":68006,"ELEMENT_SET_NO":999,"REV_AT_EPOCH":466,"BSTAR":0.00092503143,"MEAN_MOTION_DOT":0.00054186,"MEAN_MOTION_DDOT":0},{"OBJECT_NAME":"STARLINK-36592","OBJECT_ID":"2026-039X","EPOCH":"2026-03-20T20:00:01.999872","MEAN_MOTION":15.55047501,"ECCENTRICITY":0.00013752,"INCLINATION":42.9994,"RA_OF_ASC_NODE":347.1973,"ARG_OF_PERICENTER":258.8674,"MEAN_ANOMALY":106.6603,"EPHEMERIS_TYPE":0,"CLASSIFICATION_TYPE":"U","NORAD_CAT_ID":68007,"ELEMENT_SET_NO":999,"REV_AT_EPOCH":466,"BSTAR":-0.031339245,"MEAN_MOTION_DOT":-0.01906109,"MEAN_MOTION_DDOT":0},{"OBJECT_NAME":"STARLINK-36911","OBJECT_ID":"2026-039Y","EPOCH":"2026-03-20T20:00:01.999872","MEAN_MOTION":15.5349469,"ECCENTRICITY":0.00013426,"INCLINATION":42.9992,"RA_OF_ASC_NODE":347.2758,"ARG_OF_PERICENTER":239.2083,"MEAN_ANOMALY":94.7556,"EPHEMERIS_TYPE":0,"CLASSIFICATION_TYPE":"U","NORAD_CAT_ID":68008,"ELEMENT_SET_NO":999,"REV_AT_EPOCH":466,"BSTAR":-0.03111586,"MEAN_MOTION_DOT":-0.0180027,"MEAN_MOTION_DDOT":0},{"OBJECT_NAME":"STARLINK-36956","OBJECT_ID":"2026-039Z","EPOCH":"2026-03-20T20:00:01.999872","MEAN_MOTION":15.52432957,"ECCENTRICITY":0.00014471,"INCLINATION":42.9992,"RA_OF_ASC_NODE":347.3357,"ARG_OF_PERICENTER":259.1737,"MEAN_ANOMALY":50.2442,"EPHEMERIS_TYPE":0,"CLASSIFICATION_TYPE":"U","NORAD_CAT_ID":68009,"ELEMENT_SET_NO":999,"REV_AT_EPOCH":466,"BSTAR":-0.035408579,"MEAN_MOTION_DOT":-0.01986089,"MEAN_MOTION_DDOT":0}]
